[{"OBJECT_NAME":"CELESTIS-17 & SHERPA-FX1","OBJECT_ID":"2021-006CB","EPOCH":"2026-03-09T15:26:05.078112","MEAN_MOTION":15.30994801,"ECCENTRICITY":0.000663,"INCLINATION":97.2397,"RA_OF_ASC_NODE":112.1052,"ARG_OF_PERICENTER":178.1385,"MEAN_ANOMALY":181.9882,"EPHEMERIS_TYPE":0,"CLASSIFICATION_TYPE":"U","NORAD_CAT_ID":47486,"ELEMENT_SET_NO":999,"REV_AT_EPOCH":28406,"BSTAR":0.00024301,"MEAN_MOTION_DOT":7.207e-5,"MEAN_MOTION_DDOT":0},{"OBJECT_NAME":"STARLINK-35811","OBJECT_ID":"2025-270J","EPOCH":"2026-03-09T08:57:22.771008","MEAN_MOTION":15.27587209,"ECCENTRICITY":0.00010952,"INCLINATION":43.0034,"RA_OF_ASC_NODE":58.3,"ARG_OF_PERICENTER":287.3738,"MEAN_ANOMALY":72.6994,"EPHEMERIS_TYPE":0,"CLASSIFICATION_TYPE":"U","NORAD_CAT_ID":66596,"ELEMENT_SET_NO":999,"REV_AT_EPOCH":1776,"BSTAR":0.001520372,"MEAN_MOTION_DOT":0.00041822,"MEAN_MOTION_DDOT":0}]
